NORAD_CAT_ID,OBJECT_NAME,OBJECT_TYPE,EPOCH,MEAN_MOTION,ECCENTRICITY,INCLINATION,RA_OF_ASC_NODE,ARG_OF_PERICENTER,MEAN_ANOMALY,BSTAR,MEAN_MOTION_DOT,MEAN_MOTION_DDOT,TLE_LINE0,TLE_LINE1,TLE_LINE2,SEMIMAJOR_AXIS,PERIOD,APOGEE,PERIGEE,DECAYED
53830.0,STARLINK-4761,PAYLOAD,2023-06-18 11:56:34,15.08835633,0.0001263,53.2179,91.5383,90.4508,269.6629,-4.6598e-05,-1.029e-05,0.0,0 STARLINK-4761,1 53830U 22114N   23169.49761646 -.00001029  00000-0 -46598-4 0  9993,2 53830  53.2179  91.5383 0001263  90.4508 269.6629 15.08835633 42597,6917.894,95.438,540.632,538.885,0.0
53830.0,STARLINK-4761,PAYLOAD,2023-06-19 11:47:20,15.08844586,0.0001167,53.2168,87.0758,85.1964,274.9161,-1.2351e-05,-4.84e-06,0.0,0 STARLINK-4761,1 53830U 22114N   23170.49120957 -.00000484  00000-0 -12351-4 0  9993,2 53830  53.2168  87.0758 0001167  85.1964 274.9161 15.08844586 42206,6917.866,95.437,540.539,538.924,0.0
53830.0,STARLINK-4761,PAYLOAD,2023-06-20 11:38:08,15.08835074,0.000125,53.217,82.6172,89.158,270.9555,5.2538e-05,5.48e-06,0.0,0 STARLINK-4761,1 53830U 22114N   23171.48481737  .00000548  00000-0  52538-4 0  9999,2 53830  53.2170  82.6172 0001250  89.1580 270.9555 15.08835074 42891,6917.895,95.438,540.625,538.896,0.0
53830.0,STARLINK-4761,PAYLOAD,2023-06-20 17:59:40,15.08837894,0.0001362,53.2179,81.4259,93.9101,266.2046,4.3707e-05,4.08e-06,0.0,0 STARLINK-4761,1 53830U 22114N   23171.74977609  .00000408  00000-0  43707-4 0  9999,2 53830  53.2179  81.4259 0001362  93.9101 266.2046 15.08837894 42399,6917.887,95.438,540.694,538.81,0.0
53830.0,STARLINK-4761,PAYLOAD,2023-06-21 00:21:12,15.08848295,0.0001129,53.2171,80.2383,92.8502,267.2619,3.0759e-06,-2.39e-06,0.0,0 STARLINK-4761,1 53830U 22114N   23172.01473005 -.00000239  00000-0  30759-5 0  9998,2 53830  53.2171  80.2383 0001129  92.8502 267.2619 15.08848295 42439,6917.855,95.437,540.501,538.939,0.0
53830.0,STARLINK-4761,PAYLOAD,2023-06-21 11:28:54,15.08852225,0.000122,53.2177,78.1561,92.5055,267.6077,4.0988e-05,3.65e-06,0.0,0 STARLINK-4761,1 53830U 22114N   23172.47840358  .00000365  00000-0  40988-4 0  9990,2 53830  53.2177  78.1561 0001220  92.5055 267.6077 15.08852225 43049,6917.843,95.437,540.552,538.864,0.0
53830.0,STARLINK-4761,PAYLOAD,2023-06-22 00:12:00,15.08831277,0.0001297,53.2183,75.7715,114.7947,245.318,0.00012403,1.686e-05,0.0,0 STARLINK-4761,1 53830U 22114N   23173.00833395  .00001686  00000-0  12403-3 0  9990,2 53830  53.2183  75.7715 0001297 114.7947 245.3180 15.08831277 42581,6917.907,95.438,540.669,538.875,0.0
53830.0,STARLINK-4761,PAYLOAD,2023-06-23 01:38:09,15.08845801,0.0001056,53.2177,71.0215,82.9167,277.1945,5.9229e-05,6.55e-06,0.0,0 STARLINK-4761,1 53830U 22114N   23174.06816991  .00000655  00000-0  59229-4 0  9993,2 53830  53.2177  71.0215 0001056  82.9167 277.1945 15.08845801 42749,6917.863,95.437,540.458,538.997,0.0
53830.0,STARLINK-4761,PAYLOAD,2023-06-23 09:35:05,15.08841009,0.0001209,53.2178,69.5324,83.7711,276.3419,-1.9285e-05,-5.95e-06,0.0,0 STARLINK-4761,1 53830U 22114N   23174.39937460 -.00000595  00000-0 -19285-4 0  9997,2 53830  53.2178  69.5324 0001209  83.7711 276.3419 15.08841009 42795,6917.877,95.437,540.579,538.906,0.0
53830.0,STARLINK-4761,PAYLOAD,2023-06-24 17:22:49,15.08833776,0.0001165,53.2178,63.5866,95.771,264.3415,-1.8027e-05,-5.75e-06,0.0,0 STARLINK-4761,1 53830U 22114N   23175.72418291 -.00000575  00000-0 -18027-4 0  9992,2 53830  53.2178  63.5866 0001165  95.7710 264.3415 15.08833776 42990,6917.899,95.438,540.57,538.958,0.0
53830.0,STARLINK-4761,PAYLOAD,2023-06-25 02:55:07,15.08845809,0.0001222,53.2184,61.8032,96.9373,263.1758,7.1471e-05,8.5e-06,0.0,0 STARLINK-4761,1 53830U 22114N   23176.12161321  .00000850  00000-0  71471-4 0  9992,2 53830  53.2184  61.8032 0001222  96.9373 263.1758 15.08845809 43050,6917.863,95.437,540.573,538.882,0.0
53830.0,STARLINK-4761,PAYLOAD,2023-06-25 09:16:40,15.08840704,0.0001121,53.2179,60.6137,83.1491,276.9629,6.1675e-05,6.94e-06,0.0,0 STARLINK-4761,1 53830U 22114N   23176.38657700  .00000694  00000-0  61675-4 0  9992,2 53830  53.2179  60.6137 0001121  83.1491 276.9629 15.08840704 43096,6917.878,95.438,540.519,538.968,0.0
53830.0,STARLINK-4761,PAYLOAD,2023-06-26 15:29:00,15.0883483,0.0001201,53.2174,54.9643,85.7447,274.3683,5.4688e-05,5.83e-06,0.0,0 STARLINK-4761,1 53830U 22114N   23177.64514298  .00000583  00000-0  54688-4 0  9999,2 53830  53.2174  54.9643 0001201  85.7447 274.3683 15.08834830 43283,6917.896,95.438,540.592,538.93,0.0
53830.0,STARLINK-4761,PAYLOAD,2023-06-27 01:01:18,15.08843912,0.0001054,53.2174,53.1787,88.313,271.7983,4.8759e-05,4.88e-06,0.0,0 STARLINK-4761,1 53830U 22114N   23178.04257763  .00000488  00000-0  48759-4 0  9991,2 53830  53.2174  53.1787 0001054  88.3130 271.7983 15.08843912 43349,6917.868,95.437,540.463,539.004,0.0
53830.0,STARLINK-4761,PAYLOAD,2023-06-27 21:41:19,15.08839301,9.96e-05,53.2171,49.3127,84.1786,275.9319,7.2158e-05,8.61e-06,0.0,0 STARLINK-4761,1 53830U 22114N   23178.90369982  .00000861  00000-0  72158-4 0  9998,2 53830  53.2171  49.3127 0000996  84.1786 275.9319 15.08839301 43476,6917.883,95.438,540.437,539.059,0.0
53830.0,STARLINK-4761,PAYLOAD,2023-06-29 00:42:53,15.08838656,0.0001088,53.2173,44.26,75.2319,284.8794,8.2574e-05,1.027e-05,0.0,0 STARLINK-4761,1 53830U 22114N   23180.02978162  .00001027  00000-0  82574-4 0  9998,2 53830  53.2173  44.2600 0001088  75.2319 284.8794 15.08838656 43641,6917.884,95.438,540.502,538.997,0.0
53830.0,STARLINK-4761,PAYLOAD,2023-06-30 14:52:08,15.0884165,0.000114,53.2183,37.1236,81.1745,278.9376,-2.6367e-05,-7.07e-06,0.0,0 STARLINK-4761,1 53830U 22114N   23181.61954468 -.00000707  00000-0 -26367-4 0  9991,2 53830  53.2183  37.1236 0001140  81.1745 278.9376 15.08841650 43880,6917.875,95.437,540.529,538.952,0.0
53830.0,STARLINK-4761,PAYLOAD,2023-06-30 22:49:04,15.08830274,0.0001202,53.2181,35.6344,86.7943,273.3186,0.00010661,1.409e-05,0.0,0 STARLINK-4761,1 53830U 22114N   23181.95074608  .00001409  00000-0  10661-3 0  9994,2 53830  53.2181  35.6344 0001202  86.7943 273.3186 15.08830274 43935,6917.91,95.438,540.607,538.944,0.0
53830.0,STARLINK-4761,PAYLOAD,2023-07-01 22:39:51,15.08842337,0.0001179,53.2179,31.1741,87.5525,272.5603,3.0123e-05,1.92e-06,0.0,0 STARLINK-4761,1 53830U 22114N   23182.94434297  .00000192  00000-0  30123-4 0  9992,2 53830  53.2179  31.1741 0001179  87.5525 272.5603 15.08842337 44087,6917.873,95.437,540.554,538.923,0.0
53830.0,STARLINK-4761,PAYLOAD,2023-07-03 00:06:01,15.08839686,0.0001196,53.2177,26.4165,87.8338,272.2791,6.9135e-05,8.13e-06,0.0,0 STARLINK-4761,1 53830U 22114N   23184.00418538  .00000813  00000-0  69135-4 0  9996,2 53830  53.2177  26.4165 0001196  87.8338 272.2791 15.08839686 44242,6917.881,95.438,540.574,538.919,0.0
53830.0,STARLINK-4761,PAYLOAD,2023-07-03 06:27:34,15.0883431,0.0001155,53.2174,25.2267,88.8355,271.277,-3.6708e-06,-3.46e-06,0.0,0 STARLINK-4761,1 53830U 22114N   23184.26915141 -.00000346  00000-0 -36708-5 0  9990,2 53830  53.2174  25.2267 0001155  88.8355 271.2770 15.08834310 44283,6917.898,95.438,540.562,538.964,0.0
53830.0,STARLINK-4761,PAYLOAD,2023-07-03 20:46:02,15.08839646,0.0001192,53.2174,22.5504,94.2783,265.8346,2.4143e-05,9.6e-07,0.0,0 STARLINK-4761,1 53830U 22114N   23184.86530897  .00000096  00000-0  24143-4 0  9996,2 53830  53.2174  22.5504 0001192  94.2783 265.8346 15.08839646 44379,6917.881,95.438,540.571,538.922,0.0
53830.0,STARLINK-4761,PAYLOAD,2023-07-04 22:12:12,15.08843509,0.000123,53.2176,17.7928,82.1439,277.9693,7.0459e-05,8.34e-06,0.0,0 STARLINK-4761,1 53830U 22114N   23185.92514674  .00000834  00000-0  70459-4 0  9990,2 53830  53.2176  17.7928 0001230  82.1439 277.9693 15.08843509 44534,6917.87,95.437,540.586,538.884,0.0
53830.0,STARLINK-4761,PAYLOAD,2023-07-05 18:52:13,15.08836544,0.0001183,53.2179,13.927,84.3453,275.7674,4.7741e-05,4.72e-06,0.0,0 STARLINK-4761,1 53830U 22114N   23186.78627197  .00000472  00000-0  47741-4 0  9996,2 53830  53.2179  13.9270 0001183  84.3453 275.7674 15.08836544 44662,6917.891,95.438,540.574,538.938,0.0
53830.0,STARLINK-4761,PAYLOAD,2023-07-05 22:02:59,15.08843917,0.0001173,53.218,13.3314,91.2442,268.8684,5.1707e-05,5.35e-06,0.0,0 STARLINK-4761,1 53830U 22114N   23186.91874681  .00000535  00000-0  51707-4 0  9990,2 53830  53.2180  13.3314 0001173  91.2442 268.8684 15.08843917 44689,6917.868,95.437,540.545,538.922,0.0
53830.0,STARLINK-4761,PAYLOAD,2023-07-07 15:23:01,15.08839576,0.0001138,53.2183,5.5993,97.3008,262.8113,2.2392e-05,6.9e-07,0.0,0 STARLINK-4761,1 53830U 22114N   23188.64098968  .00000069  00000-0  22392-4 0  9998,2 53830  53.2183   5.5993 0001138  97.3008 262.8113 15.08839576 44940,6917.882,95.438,540.534,538.959,0.0
53830.0,STARLINK-4761,PAYLOAD,2023-07-08 19:59:57,15.0884481,0.0001096,53.2185,0.2484,88.8285,271.2833,6.0536e-05,6.76e-06,0.0,0 STARLINK-4761,1 53830U 22114N   23189.83330540  .00000676  00000-0  60536-4 0  9991,2 53830  53.2185   0.2484 0001096  88.8285 271.2833 15.08844810 45125,6917.866,95.437,540.489,538.972,0.0
53830.0,STARLINK-4761,PAYLOAD,2023-07-09 03:56:54,15.0882501,4.19e-05,53.218,358.7638,140.656,219.4462,-0.00010954,-2.03e-05,0.0,0 STARLINK-4761,1 53830U 22114N   23190.16451983 -.00002030  00000-0 -10954-3 0  9990,2 53830  53.2180 358.7638 0000419 140.6560 219.4462 15.08825010 45171,6917.926,95.439,540.081,539.501,0.0
53830.0,STARLINK-4761,PAYLOAD,2023-07-09 16:39:59,15.08831788,0.0001108,53.2185,356.3818,81.4861,278.6257,-2.1409e-05,-6.28e-06,0.0,0 STARLINK-4761,1 53830U 22114N   23190.69443970 -.00000628  00000-0 -21409-4 0  9994,2 53830  53.2185 356.3818 0001108  81.4861 278.6257 15.08831788 45259,6917.905,95.438,540.537,539.004,0.0
53830.0,STARLINK-4761,PAYLOAD,2023-07-10 11:44:36,15.08841071,0.000108,53.2179,352.8132,86.1795,273.932,2.6203e-05,1.29e-06,0.0,0 STARLINK-4761,1 53830U 22114N   23191.48931514  .00000129  00000-0  26203-4 0  9999,2 53830  53.2179 352.8132 0001080  86.1795 273.9320 15.08841071 45377,6917.877,95.437,540.489,538.995,0.0
